*******************************************************************************
JPL/HORIZONS               3753 Cruithne (1986 TO)         2023-May-05 15:37:22
Rec #:    3753 (+COV) Soln.date: 2023-Mar-01_06:10:23   # obs: 1216 (1973-2022)
 
IAU76/J2000 helio. ecliptic osc. elements (au, days, deg., period=Julian yrs):
 
  EPOCH=  2456900.5 ! 2014-Aug-31.00 (TDB)         Residual RMS= .35645
   EC= .5148627256994029   QR= .4840184658385133   TP= 2457012.169995938
   OM= 126.2462939076055   W=  43.80978547847901   IN= 19.80747881540994
   A= .9976938311662474    MA= 249.5553600271496   ADIST= 1.511369196493981
   PER= .99656             N= .9890269900000001    ANGMOM= .014729875
   DAN= .53459             DDN= 1.16671            L= 168.3137556
   B= 13.566979            MOID= .0710535          TP= 2014-Dec-20.6699959380
 
Asteroid physical parameters (km, seconds, rotational period in hours):
   GM= n.a.                RAD= 1.0355             ROTPER= 27.3099
   H= 15.5                 G= .150                 B-V= n.a.
                           ALBEDO= .365            STYP= Q
 
ASTEROID comments: 
1: soln ref.= JPL#240, OCC=0
2: source=ORB
*******************************************************************************

  
  

*******************************************************************************
Ephemeris / WWW_USER Fri May  5 15:37:22 2023 Pasadena, USA      / Horizons
*******************************************************************************
Target body name: 3753 Cruithne (1986 TO)         {source: JPL#240}
Center body name: Earth (399)                     {source: DE441}
Center-site name: BODY CENTER
*******************************************************************************
Start time      : A.D. 2007-Sep-01 00:00:00.0000 TDB
Stop  time      : A.D. 2010-Aug-01 00:00:00.0000 TDB
Step-size       : 1440 minutes
*******************************************************************************
Center geodetic : 0.0, 0.0, 0.0                   {E-lon(deg),Lat(deg),Alt(km)}
Center cylindric: 0.0, 0.0, 0.0                   {E-lon(deg),Dxy(km),Dz(km)}
Center radii    : 6378.137, 6378.137, 6356.752 km {Equator_a, b, pole_c}
Small perturbers: Yes                             {source: SB441-N16}
Output units    : KM-S
Calendar mode   : Mixed Julian/Gregorian
Output type     : GEOMETRIC cartesian states
Output format   : 1 (position only)
EOP file        : eop.230504.p230727
EOP coverage    : DATA-BASED 1962-JAN-20 TO 2023-MAY-04. PREDICTS-> 2023-JUL-26
Reference frame : Ecliptic of J2000.0
*******************************************************************************
Initial IAU76/J2000 heliocentric ecliptic osculating elements (au, days, deg.):
  EPOCH=  2456900.5 ! 2014-Aug-31.00 (TDB)         Residual RMS= .35645        
   EC= .5148627256994029   QR= .4840184658385133   TP= 2457012.169995938       
   OM= 126.2462939076055   W=  43.80978547847901   IN= 19.80747881540994       
  Equivalent ICRF heliocentric cartesian coordinates (au, au/d):
   X= 1.215347990905840E+00  Y= 5.153520927692684E-01  Z=-2.481738801145509E-01
  VX=-7.990656955364673E-03 VY= 8.039467650712289E-03 VZ= 3.939584837771865E-03
Asteroid physical parameters (km, seconds, rotational period in hours):        
   GM= n.a.                RAD= 1.0355             ROTPER= 27.3099             
   H= 15.5                 G= .150                 B-V= n.a.                   
                           ALBEDO= .365            STYP= Q                     
*******************************************************************************
            JDTDB,            Calendar Date (TDB),                      X,                      Y,                      Z,
**************************************************************************************************************************
$$SOE
2454544.500000000, A.D. 2008-Mar-19 00:00:00.0000,  2.478519216047446E+08, -1.446217971783903E+08,  1.352373766316742E+06,
2454545.500000000, A.D. 2008-Mar-20 00:00:00.0000,  2.500270936697897E+08, -1.418938956781838E+08,  7.126865145009086E+05,
2454546.500000000, A.D. 2008-Mar-21 00:00:00.0000,  2.521386728285261E+08, -1.391390427780112E+08,  7.286788783267885E+04,
2454547.500000000, A.D. 2008-Mar-22 00:00:00.0000,  2.541866616350244E+08, -1.363584838820696E+08, -5.669558581256196E+05,
2454548.500000000, A.D. 2008-Mar-23 00:00:00.0000,  2.561710696007689E+08, -1.335534501118229E+08, -1.206663519459903E+06,
2454549.500000000, A.D. 2008-Mar-24 00:00:00.0000,  2.580919139315444E+08, -1.307251608579249E+08, -1.846138855848767E+06,
2454550.500000000, A.D. 2008-Mar-25 00:00:00.0000,  2.599492206309517E+08, -1.278748257408796E+08, -2.485270451370806E+06,
2454551.500000000, A.D. 2008-Mar-26 00:00:00.0000,  2.617430257231748E+08, -1.250036459795034E+08, -3.123951535694458E+06,
2454552.500000000, A.D. 2008-Mar-27 00:00:00.0000,  2.634733763862573E+08, -1.221128152690859E+08, -3.762079783164598E+06,
2454553.500000000, A.D. 2008-Mar-28 00:00:00.0000,  2.651403318662529E+08, -1.192035203418996E+08, -4.399557108795151E+06,
2454554.500000000, A.D. 2008-Mar-29 00:00:00.0000,  2.667439641396758E+08, -1.162769414112401E+08, -5.036289477522828E+06,
2454555.500000000, A.D. 2008-Mar-30 00:00:00.0000,  2.682843583891465E+08, -1.133342526893221E+08, -5.672186737387843E+06,
2454556.500000000, A.D. 2008-Mar-31 00:00:00.0000,  2.697616134471089E+08, -1.103766231247220E+08, -6.307162479424201E+06,
2454557.500000000, A.D. 2008-Apr-01 00:00:00.0000,  2.711758424419526E+08, -1.074052174255063E+08, -6.941133917068087E+06,
2454558.500000000, A.D. 2008-Apr-02 00:00:00.0000,  2.725271739400880E+08, -1.044211973090214E+08, -7.574021765535481E+06,
2454559.500000000, A.D. 2008-Apr-03 00:00:00.0000,  2.738157538861084E+08, -1.014257227363503E+08, -8.205750087511905E+06,
2454560.500000000, A.D. 2008-Apr-04 00:00:00.0000,  2.750417485423958E+08, -9.841995265917499E+07, -8.836246059378579E+06,
2454561.500000000, A.D. 2008-Apr-05 00:00:00.0000,  2.762053483501403E+08, -9.540504460031283E+07, -9.465439610867929E+06,
2454562.500000000, A.D. 2008-Apr-06 00:00:00.0000,  2.773067721618419E+08, -9.238215236230966E+07, -1.009326291283055E+07,
2454563.500000000, A.D. 2008-Apr-07 00:00:00.0000,  2.783462707732620E+08, -8.935242149757266E+07, -1.071964973946845E+07,
2454564.500000000, A.D. 2008-Apr-08 00:00:00.0000,  2.793241284396005E+08, -8.631698291987032E+07, -1.134453479945247E+07,
2454565.500000000, A.D. 2008-Apr-09 00:00:00.0000,  2.802406614259665E+08, -8.327694590070036E+07, -1.196785317653292E+07,
2454566.500000000, A.D. 2008-Apr-10 00:00:00.0000,  2.810962135942282E+08, -8.023339213378140E+07, -1.258954000517987E+07,
2454567.500000000, A.D. 2008-Apr-11 00:00:00.0000,  2.818911500619089E+08, -7.718737220869371E+07, -1.320953042911791E+07,
2454568.500000000, A.D. 2008-Apr-12 00:00:00.0000,  2.826258504669311E+08, -7.413990490988617E+07, -1.382775979631000E+07,
2454569.500000000, A.D. 2008-Apr-13 00:00:00.0000,  2.833007031366477E+08, -7.109197884164952E+07, -1.444416398724418E+07,
2454570.500000000, A.D. 2008-Apr-14 00:00:00.0000,  2.839161008037565E+08, -6.804455543201037E+07, -1.505867977285005E+07,
2454571.500000000, A.D. 2008-Apr-15 00:00:00.0000,  2.844724378898908E+08, -6.499857242502984E+07, -1.567124513387363E+07,
2454572.500000000, A.D. 2008-Apr-16 00:00:00.0000,  2.849701090376841E+08, -6.195494728668190E+07, -1.628179951427059E+07,
2454573.500000000, A.D. 2008-Apr-17 00:00:00.0000,  2.854095085076206E+08, -5.891458027225021E+07, -1.689028400859824E+07,
2454574.500000000, A.D. 2008-Apr-18 00:00:00.0000,  2.857910301427504E+08, -5.587835710914824E+07, -1.749664149448360E+07,
2454575.500000000, A.D. 2008-Apr-19 00:00:00.0000,  2.861150677240067E+08, -5.284715132942259E+07, -1.810081672131561E+07,
2454576.500000000, A.D. 2008-Apr-20 00:00:00.0000,  2.863820156249663E+08, -4.982182628560549E+07, -1.870275636203162E+07,
2454577.500000000, A.D. 2008-Apr-21 00:00:00.0000,  2.865922697091234E+08, -4.680323685420270E+07, -1.930240903105044E+07,
2454578.500000000, A.D. 2008-Apr-22 00:00:00.0000,  2.867462284069368E+08, -4.379223081101078E+07, -1.989972527028235E+07,
2454579.500000000, A.D. 2008-Apr-23 00:00:00.0000,  2.868442938886539E+08, -4.078964986927452E+07, -2.049465750676405E+07,
2454580.500000000, A.D. 2008-Apr-24 00:00:00.0000,  2.868868732365623E+08, -3.779633040404093E+07, -2.108715998849349E+07,
2454581.500000000, A.D. 2008-Apr-25 00:00:00.0000,  2.868743795319814E+08, -3.481310393034276E+07, -2.167718870769148E+07,
2454582.500000000, A.D. 2008-Apr-26 00:00:00.0000,  2.868072328114067E+08, -3.184079744165974E+07, -2.226470132154119E+07,
2454583.500000000, A.D. 2008-Apr-27 00:00:00.0000,  2.866858609073369E+08, -2.888023373412134E+07, -2.284965707868316E+07,
2454584.500000000, A.D. 2008-Apr-28 00:00:00.0000,  2.865107002632786E+08, -2.593223183152261E+07, -2.343201675514897E+07,
2454585.500000000, A.D. 2008-Apr-29 00:00:00.0000,  2.862821968892711E+08, -2.299760757871830E+07, -2.401174259598187E+07,
2454586.500000000, A.D. 2008-Apr-30 00:00:00.0000,  2.860008076904009E+08, -2.007717437657232E+07, -2.458879824854231E+07,
2454587.500000000, A.D. 2008-May-01 00:00:00.0000,  2.856670024299219E+08, -1.717174387939589E+07, -2.516314866105159E+07,
2454588.500000000, A.D. 2008-May-02 00:00:00.0000,  2.852812665310631E+08, -1.428212626700713E+07, -2.573475990800076E+07,
2454589.500000000, A.D. 2008-May-03 00:00:00.0000,  2.848441047062685E+08, -1.140912948358038E+07, -2.630359889963758E+07,
2454590.500000000, A.D. 2008-May-04 00:00:00.0000,  2.843560449789579E+08, -8.553556733180821E+06, -2.686963294770627E+07,
2454591.500000000, A.D. 2008-May-05 00:00:00.0000,  2.838176421014979E+08, -5.716201744400417E+06, -2.743282920504735E+07,
2454592.500000000, A.D. 2008-May-06 00:00:00.0000,  2.832294789673917E+08, -2.897842014690127E+06, -2.799315406792797E+07,
2454593.500000000, A.D. 2008-May-07 00:00:00.0000,  2.825921648055751E+08, -9.923125602678768E+04, -2.855057269230555E+07,
